ONEWEB-0116             
1 48046U 21025E   25360.05113010  .00000256  00000+0  66623-3 0  9997
2 48046  87.8984 354.6181 0001897  86.0481 274.0865 13.13468918230920
ONEWEB-0150             
1 48047U 21025F   25360.02742784 -.00000300  00000+0 -85640-3 0  9993
2 48047  87.8984 354.6188 0001769  94.7903 265.3428 13.13470031230816
ONEWEB-0107             
1 48048U 21025G   25360.02911481 -.00000272  00000+0 -77973-3 0  9994
2 48048  87.8986 354.6149 0001502  90.9483 269.1819 13.13468440230796
ONEWEB-0101             
1 48049U 21025H   25359.91569493  .00000197  00000+0  50555-3 0  9994
2 48049  87.8979 354.6693 0001636  83.6169 276.5147 13.13468030230758
ONEWEB-0113             
1 48050U 21025J   25360.07913801 -.00000008  00000+0 -57113-4 0  9992
2 48050  87.8982 354.5639 0001975  90.7978 269.3377 13.13985660230877
ONEWEB-0112             
1 48051U 21025K   25360.03418536 -.00000104  00000+0 -31865-3 0  9996
2 48051  87.8987 354.6115 0001769  89.2274 270.9058 13.13468453230865
ONEWEB-0156             
1 48052U 21025L   25360.04266560  .00000074  00000+0  16647-3 0  9991
2 48052  87.8986 354.6207 0001615  90.1888 269.9426 13.13469647230840
ONEWEB-0161             
1 48053U 21025M   25359.94108758 -.00000260  00000+0 -74764-3 0  9996
2 48053  87.8979 354.6564 0001611  90.3355 269.7959 13.13468854230765
